{
  "type": "FeatureCollection",
  "features": [
    {
      "type": "Feature",
      "properties": {
        "norad_id": 34570,
        "name": "COSMOS 2251 DEB",
        "group": "cosmos-2251-debris",
        "lat": -65.94336528714439,
        "lon": -172.14569485333516,
        "alt_km": 1039.4271080403241,
        "timestamp": "2025-12-07T03:52:32.897156+00:00",
        "meta_object_name": "COSMOS 2251 DEB",
        "meta_object_id": "1993-036VG",
        "meta_epoch": "2025-12-06T03:12:06.499584",
        "meta_mean_motion": 13.99803455,
        "meta_eccentricity": 0.01902195,
        "meta_inclination": 73.9579,
        "meta_ra_of_asc_node": 229.771,
        "meta_arg_of_pericenter": 113.7537,
        "meta_mean_anomaly": 35.4941,
        "meta_ephemeris_type": 0,
        "meta_classification_type": "U",
        "meta_norad_cat_id": 34570,
        "meta_element_set_no": 999,
        "meta_rev_at_epoch": 85508,
        "meta_bstar": 0.00076088738,
        "meta_mean_motion_dot": 1.281e-05,
        "meta_mean_motion_ddot": 0,
        "tle_line1": "1 34570U 93036VG  25340.13340856  .00001281  00000+0  76089-3 0  9998",
        "tle_line2": "2 34570  73.9579 229.7710 0190219 113.7537  35.4941 13.99803455855087"
      },
      "geometry": {
        "type": "Point",
        "coordinates": [
          -172.14569485333516,
          -65.94336528714439
        ]
      }
    },
    {
      "type": "Feature",
      "properties": {
        "norad_id": 34571,
        "name": "COSMOS 2251 DEB",
        "group": "cosmos-2251-debris",
        "lat": -53.79564312788823,
        "lon": 35.89950500192078,
        "alt_km": 689.4757572809503,
        "timestamp": "2025-12-07T03:52:32.897167+00:00",
        "meta_object_name": "COSMOS 2251 DEB",
        "meta_object_id": "1993-036VH",
        "meta_epoch": "2025-12-05T20:57:01.253952",
        "meta_mean_motion": 14.48652907,
        "meta_eccentricity": 0.00669019,
        "meta_inclination": 74.039,
        "meta_ra_of_asc_node": 195.2976,
        "meta_arg_of_pericenter": 231.9254,
        "meta_mean_anomaly": 127.586,
        "meta_ephemeris_type": 0,
        "meta_classification_type": "U",
        "meta_norad_cat_id": 34571,
        "meta_element_set_no": 999,
        "meta_rev_at_epoch": 87194,
        "meta_bstar": 0.0035092807,
        "meta_mean_motion_dot": 0.0001359,
        "meta_mean_motion_ddot": 0,
        "tle_line1": "1 34571U 93036VH  25339.87293118  .00013590  00000+0  35093-2 0  9991",
        "tle_line2": "2 34571  74.0390 195.2976 0066901 231.9254 127.5860 14.48652907871946"
      },
      "geometry": {
        "type": "Point",
        "coordinates": [
          35.89950500192078,
          -53.79564312788823
        ]
      }
    },
    {
      "type": "Feature",
      "properties": {
        "norad_id": 34572,
        "name": "COSMOS 2251 DEB",
        "group": "cosmos-2251-debris",
        "lat": 68.24438560955038,
        "lon": 171.92678559211336,
        "alt_km": 745.1991924231415,
        "timestamp": "2025-12-07T03:52:32.897177+00:00",
        "meta_object_name": "COSMOS 2251 DEB",
        "meta_object_id": "1993-036VJ",
        "meta_epoch": "2025-12-06T09:27:00.184032",
        "meta_mean_motion": 14.49801114,
        "meta_eccentricity": 0.00636006,
        "meta_inclination": 74.0114,
        "meta_ra_of_asc_node": 127.4423,
        "meta_arg_of_pericenter": 202.1384,
        "meta_mean_anomaly": 188.077,
        "meta_ephemeris_type": 0,
        "meta_classification_type": "U",
        "meta_norad_cat_id": 34572,
        "meta_element_set_no": 999,
        "meta_rev_at_epoch": 87286,
        "meta_bstar": 0.0052722217,
        "meta_mean_motion_dot": 0.00020902,
        "meta_mean_motion_ddot": 0,
        "tle_line1": "1 34572U 93036VJ  25340.39375213  .00020902  00000+0  52722-2 0  9991",
        "tle_line2": "2 34572  74.0114 127.4423 0063600 202.1384 188.0770 14.49801114872863"
      },
      "geometry": {
        "type": "Point",
        "coordinates": [
          171.92678559211336,
          68.24438560955038
        ]
      }
    },
    {
      "type": "Feature",
      "properties": {
        "norad_id": 34574,
        "name": "COSMOS 2251 DEB",
        "group": "cosmos-2251-debris",
        "lat": -74.01742776532032,
        "lon": -40.35047562905683,
        "alt_km": 712.4804741993548,
        "timestamp": "2025-12-07T03:52:32.897188+00:00",
        "meta_object_name": "COSMOS 2251 DEB",
        "meta_object_id": "1993-036VL",
        "meta_epoch": "2025-12-06T15:46:44.856768",
        "meta_mean_motion": 14.7050465,
        "meta_eccentricity": 0.00669684,
        "meta_inclination": 74.07,
        "meta_ra_of_asc_node": 54.914,
        "meta_arg_of_pericenter": 77.9509,
        "meta_mean_anomaly": 43.8944,
        "meta_ephemeris_type": 0,
        "meta_classification_type": "U",
        "meta_norad_cat_id": 34574,
        "meta_element_set_no": 999,
        "meta_rev_at_epoch": 88689,
        "meta_bstar": 0.0016481789,
        "meta_mean_motion_dot": 0.00010336,
        "meta_mean_motion_ddot": 0,
        "tle_line1": "1 34574U 93036VL  25340.65746362  .00010336  00000+0  16482-2 0  9992",
        "tle_line2": "2 34574  74.0700  54.9140 0066968  77.9509  43.8944 14.70504650886891"
      },
      "geometry": {
        "type": "Point",
        "coordinates": [
          -40.35047562905683,
          -74.01742776532032
        ]
      }
    },
    {
      "type": "Feature",
      "properties": {
        "norad_id": 34576,
        "name": "COSMOS 2251 DEB",
        "group": "cosmos-2251-debris",
        "lat": -2.7331739569077373,
        "lon": -30.45258058513563,
        "alt_km": 712.1247536887922,
        "timestamp": "2025-12-07T03:52:32.897198+00:00",
        "meta_object_name": "COSMOS 2251 DEB",
        "meta_object_id": "1993-036VN",
        "meta_epoch": "2025-12-05T22:03:28.107648",
        "meta_mean_motion": 14.55346539,
        "meta_eccentricity": 0.00079495,
        "meta_inclination": 74.0327,
        "meta_ra_of_asc_node": 151.1169,
        "meta_arg_of_pericenter": 285.1521,
        "meta_mean_anomaly": 230.9661,
        "meta_ephemeris_type": 0,
        "meta_classification_type": "U",
        "meta_norad_cat_id": 34576,
        "meta_element_set_no": 999,
        "meta_rev_at_epoch": 88367,
        "meta_bstar": 0.0014239475,
        "meta_mean_motion_dot": 6.158e-05,
        "meta_mean_motion_ddot": 0,
        "tle_line1": "1 34576U 93036VN  25339.91907532  .00006158  00000+0  14239-2 0  9994",
        "tle_line2": "2 34576  74.0327 151.1169 0007949 285.1521 230.9661 14.55346539883671"
      },
      "geometry": {
        "type": "Point",
        "coordinates": [
          -30.45258058513563,
          -2.7331739569077373
        ]
      }
    },
    {
      "type": "Feature",
      "properties": {
        "norad_id": 34579,
        "name": "COSMOS 2251 DEB",
        "group": "cosmos-2251-debris",
        "lat": -59.186161253962666,
        "lon": 82.92235634216297,
        "alt_km": 738.1425395850893,
        "timestamp": "2025-12-07T03:52:32.897229+00:00",
        "meta_object_name": "COSMOS 2251 DEB",
        "meta_object_id": "1993-036VR",
        "meta_epoch": "2025-12-06T10:56:57.973920",
        "meta_mean_motion": 14.45280696,
        "meta_eccentricity": 0.0027569,
        "meta_inclination": 74.0535,
        "meta_ra_of_asc_node": 235.5902,
        "meta_arg_of_pericenter": 305.1742,
        "meta_mean_anomaly": 230.3102,
        "meta_ephemeris_type": 0,
        "meta_classification_type": "U",
        "meta_norad_cat_id": 34579,
        "meta_element_set_no": 999,
        "meta_rev_at_epoch": 88083,
        "meta_bstar": 0.00090355139,
        "meta_mean_motion_dot": 3.16e-05,
        "meta_mean_motion_ddot": 0,
        "tle_line1": "1 34579U 93036VR  25340.45622655  .00003160  00000+0  90355-3 0  9992",
        "tle_line2": "2 34579  74.0535 235.5902 0027569 305.1742 230.3102 14.45280696880834"
      },
      "geometry": {
        "type": "Point",
        "coordinates": [
          82.92235634216297,
          -59.186161253962666
        ]
      }
    },
    {
      "type": "Feature",
      "properties": {
        "norad_id": 34582,
        "name": "COSMOS 2251 DEB",
        "group": "cosmos-2251-debris",
        "lat": -39.74166985989115,
        "lon": 116.53364392367669,
        "alt_km": 787.3870196827556,
        "timestamp": "2025-12-07T03:52:32.897253+00:00",
        "meta_object_name": "COSMOS 2251 DEB",
        "meta_object_id": "1993-036VU",
        "meta_epoch": "2025-12-06T05:13:38.124768",
        "meta_mean_motion": 14.43270837,
        "meta_eccentricity": 0.00474965,
        "meta_inclination": 74.0203,
        "meta_ra_of_asc_node": 284.5044,
        "meta_arg_of_pericenter": 36.1527,
        "meta_mean_anomaly": 324.2824,
        "meta_ephemeris_type": 0,
        "meta_classification_type": "U",
        "meta_norad_cat_id": 34582,
        "meta_element_set_no": 999,
        "meta_rev_at_epoch": 87853,
        "meta_bstar": 0.0013568983,
        "meta_mean_motion_dot": 4.608e-05,
        "meta_mean_motion_ddot": 0,
        "tle_line1": "1 34582U 93036VU  25340.21780237  .00004608  00000+0  13569-2 0  9990",
        "tle_line2": "2 34582  74.0203 284.5044 0047496  36.1527 324.2824 14.43270837878536"
      },
      "geometry": {
        "type": "Point",
        "coordinates": [
          116.53364392367669,
          -39.74166985989115
        ]
      }
    }
  ]
}